start=new Date('2023-03-25T00:00:00.000Z').valueOf();
sats=[{"APOAPSIS":"548.163","RA_OF_ASC_NODE":"163.4043","FILE":"3870109","REV_AT_EPOCH":"10426","MEAN_MOTION_DDOT":"0.0000000000000","REF_FRAME":"TEME","NORAD_CAT_ID":"48367","COUNTRY_CODE":"US","SEMIMAJOR_AXIS":"6925.319","RCS_SIZE":"LARGE","OBJECT_TYPE":"PAYLOAD","OBJECT_ID":"2021-038Q","EPOCH":"2023-03-24T21:57:55.272384","ECCENTRICITY":"0.00014150","TLE_LINE1":"1 48367U 21038Q   23083.91522306  .00041709  00000-0  28017-2 0  9997","MEAN_ELEMENT_THEORY":"SGP4","ELEMENT_SET_NO":"999","EPHEMERIS_TYPE":"0","MEAN_MOTION":"15.06409801","CLASSIFICATION_TYPE":"U","CENTER_NAME":"EARTH","ARG_OF_PERICENTER":"105.0767","DECAY_DATE":null,"BSTAR":"0.00280170000000","GP_ID":"228822494","INCLINATION":"53.0519","OBJECT_NAME":"STARLINK-2643","LAUNCH_DATE":"2021-05-04","SITE":"AFETR","TIME_SYSTEM":"UTC","PERIOD":"95.592","MEAN_ANOMALY":"255.0378","PERIAPSIS":"546.204","MEAN_MOTION_DOT":"0.00041709","TLE_LINE2":"2 48367  53.0519 163.4043 0001415 105.0767 255.0378 15.06409801104268"},{"TIME_SYSTEM":"UTC","PERIOD":"95.592","MEAN_MOTION_DOT":"0.00006731","PERIAPSIS":"546.354","TLE_LINE2":"2 48368  53.0538 164.9721 0001197 111.0402 249.0715 15.06409824104228","MEAN_ANOMALY":"249.0715","DECAY_DATE":null,"ARG_OF_PERICENTER":"111.0402","INCLINATION":"53.0538","GP_ID":"228822239","OBJECT_NAME":"STARLINK-2623","BSTAR":"0.00047018000000","LAUNCH_DATE":"2021-05-04","SITE":"AFETR","MEAN_ELEMENT_THEORY":"SGP4","ELEMENT_SET_NO":"999","TLE_LINE1":"1 48368U 21038R   23083.62775273  .00006731  00000-0  47018-3 0  9998","MEAN_MOTION":"15.06409824","EPHEMERIS_TYPE":"0","CLASSIFICATION_TYPE":"U","CENTER_NAME":"EARTH","FILE":"3870109","APOAPSIS":"548.012","RA_OF_ASC_NODE":"164.9721","REF_FRAME":"TEME","NORAD_CAT_ID":"48368","REV_AT_EPOCH":"10422","MEAN_MOTION_DDOT":"0.0000000000000","RCS_SIZE":"LARGE","SEMIMAJOR_AXIS":"6925.318","COUNTRY_CODE":"US","EPOCH":"2023-03-24T15:03:57.835872","ECCENTRICITY":"0.00011970","OBJECT_TYPE":"PAYLOAD","OBJECT_ID":"2021-038R"},{"TLE_LINE1":"1 48369U 21038S   23083.91153295  .00035117  00000-0  23650-2 0  9990","ELEMENT_SET_NO":"999","MEAN_ELEMENT_THEORY":"SGP4","MEAN_MOTION":"15.06395186","EPHEMERIS_TYPE":"0","CLASSIFICATION_TYPE":"U","CENTER_NAME":"EARTH","APOAPSIS":"548.242","RA_OF_ASC_NODE":"163.4222","FILE":"3870109","REV_AT_EPOCH":"10426","MEAN_MOTION_DDOT":"0.0000000000000","REF_FRAME":"TEME","NORAD_CAT_ID":"48369","COUNTRY_CODE":"US","RCS_SIZE":"LARGE","SEMIMAJOR_AXIS":"6925.363","OBJECT_TYPE":"PAYLOAD","OBJECT_ID":"2021-038S","EPOCH":"2023-03-24T21:52:36.446880","ECCENTRICITY":"0.00014640","TIME_SYSTEM":"UTC","PERIOD":"95.592","MEAN_ANOMALY":"261.4032","PERIAPSIS":"546.214","MEAN_MOTION_DOT":"0.00035117","TLE_LINE2":"2 48369  53.0536 163.4222 0001464  98.7123 261.4032 15.06395186104264","DECAY_DATE":null,"ARG_OF_PERICENTER":"98.7123","BSTAR":"0.00236500000000","GP_ID":"228820993","INCLINATION":"53.0536","OBJECT_NAME":"STARLINK-2641","LAUNCH_DATE":"2021-05-04","SITE":"AFETR"},{"DECAY_DATE":null,"ARG_OF_PERICENTER":"134.8296","SITE":"AFETR","LAUNCH_DATE":"2021-05-04","BSTAR":"0.00029772000000","OBJECT_NAME":"STARLINK-2621","GP_ID":"228821743","INCLINATION":"53.0541","TIME_SYSTEM":"UTC","MEAN_ANOMALY":"225.2912","TLE_LINE2":"2 48370  53.0541 163.4287 0002683 134.8296 225.2912 15.06359554104264","MEAN_MOTION_DOT":"0.00004151","PERIAPSIS":"545.479","PERIOD":"95.595","REV_AT_EPOCH":"10426","MEAN_MOTION_DDOT":"0.0000000000000","NORAD_CAT_ID":"48370","REF_FRAME":"TEME","RA_OF_ASC_NODE":"163.4287","APOAPSIS":"549.196","FILE":"3870109","OBJECT_ID":"2021-038T","OBJECT_TYPE":"PAYLOAD","ECCENTRICITY":"0.00026830","EPOCH":"2023-03-24T21:47:19.291488","COUNTRY_CODE":"US","SEMIMAJOR_AXIS":"6925.473","RCS_SIZE":"LARGE","EPHEMERIS_TYPE":"0","MEAN_MOTION":"15.06359554","TLE_LINE1":"1 48370U 21038T   23083.90786217  .00004151  00000-0  29772-3 0  9993","ELEMENT_SET_NO":"999","MEAN_ELEMENT_THEORY":"SGP4","CENTER_NAME":"EARTH","CLASSIFICATION_TYPE":"U"},{"ECCENTRICITY":"0.00015690","EPOCH":"2023-03-24T12:08:45.093408","OBJECT_ID":"2021-038U","OBJECT_TYPE":"PAYLOAD","RCS_SIZE":"LARGE","SEMIMAJOR_AXIS":"6925.466","COUNTRY_CODE":"US","NORAD_CAT_ID":"48371","REF_FRAME":"TEME","REV_AT_EPOCH":"10420","MEAN_MOTION_DDOT":"0.0000000000000","FILE":"3869846","APOAPSIS":"548.418","RA_OF_ASC_NODE":"165.2392","CENTER_NAME":"EARTH","CLASSIFICATION_TYPE":"U","EPHEMERIS_TYPE":"0","MEAN_MOTION":"15.06361577","MEAN_ELEMENT_THEORY":"SGP4","ELEMENT_SET_NO":"999","TLE_LINE1":"1 48371U 21038U   23083.50607747  .00067774  00000-0  45300-2 0  9994","SITE":"AFETR","LAUNCH_DATE":"2021-05-04","GP_ID":"228789370","OBJECT_NAME":"STARLINK-2589","INCLINATION":"53.0534","BSTAR":"0.00453000000000","ARG_OF_PERICENTER":"108.2400","DECAY_DATE":null,"TLE_LINE2":"2 48371  53.0534 165.2392 0001569 108.2400 251.8760 15.06361577104206","MEAN_MOTION_DOT":"0.00067774","PERIAPSIS":"546.245","MEAN_ANOMALY":"251.8760","PERIOD":"95.595","TIME_SYSTEM":"UTC"},{"TIME_SYSTEM":"UTC","MEAN_ANOMALY":"249.8286","TLE_LINE2":"2 48372  53.0529 165.2533 0001066 110.2818 249.8286 15.06387273104207","PERIAPSIS":"546.514","MEAN_MOTION_DOT":"0.00019866","PERIOD":"95.593","DECAY_DATE":null,"ARG_OF_PERICENTER":"110.2818","SITE":"AFETR","LAUNCH_DATE":"2021-05-04","BSTAR":"0.00134930000000","OBJECT_NAME":"STARLINK-2572","GP_ID":"228789621","INCLINATION":"53.0529","EPHEMERIS_TYPE":"0","MEAN_MOTION":"15.06387273","TLE_LINE1":"1 48372U 21038V   23083.50238582  .00019866  00000-0  13493-2 0  9999","MEAN_ELEMENT_THEORY":"SGP4","ELEMENT_SET_NO":"999","CENTER_NAME":"EARTH","CLASSIFICATION_TYPE":"U","MEAN_MOTION_DDOT":"0.0000000000000","REV_AT_EPOCH":"10420","NORAD_CAT_ID":"48372","REF_FRAME":"TEME","APOAPSIS":"547.991","RA_OF_ASC_NODE":"165.2533","FILE":"3869846","OBJECT_ID":"2021-038V","OBJECT_TYPE":"PAYLOAD","ECCENTRICITY":"0.00010660","EPOCH":"2023-03-24T12:03:26.134848","COUNTRY_CODE":"US","SEMIMAJOR_AXIS":"6925.388","RCS_SIZE":"LARGE"},{"ARG_OF_PERICENTER":"56.6622","DECAY_DATE":null,"SITE":"AFETR","LAUNCH_DATE":"2021-05-04","OBJECT_NAME":"STARLINK-2609","GP_ID":"228821493","INCLINATION":"53.0534","BSTAR":"0.00414050000000","TIME_SYSTEM":"UTC","TLE_LINE2":"2 48373  53.0534 164.6725 0001122  56.6622 303.4474 15.06417864104227","MEAN_MOTION_DOT":"0.00061965","PERIAPSIS":"546.382","MEAN_ANOMALY":"303.4474","PERIOD":"95.591","NORAD_CAT_ID":"48373","REF_FRAME":"TEME","REV_AT_EPOCH":"10422","MEAN_MOTION_DDOT":"0.0000000000000","FILE":"3870109","RA_OF_ASC_NODE":"164.6725","APOAPSIS":"547.936","ECCENTRICITY":"0.00011220","EPOCH":"2023-03-24T15:09:12.739680","OBJECT_ID":"2021-038W","OBJECT_TYPE":"PAYLOAD","RCS_SIZE":"LARGE","SEMIMAJOR_AXIS":"6925.294","COUNTRY_CODE":"US","EPHEMERIS_TYPE":"0","MEAN_MOTION":"15.06417864","MEAN_ELEMENT_THEORY":"SGP4","ELEMENT_SET_NO":"999","TLE_LINE1":"1 48373U 21038W   23083.63139745  .00061965  00000-0  41405-2 0  9996","CENTER_NAME":"EARTH","CLASSIFICATION_TYPE":"U"},{"CLASSIFICATION_TYPE":"U","CENTER_NAME":"EARTH","MEAN_ELEMENT_THEORY":"SGP4","ELEMENT_SET_NO":"999","TLE_LINE1":"1 48374U 21038X   23083.69311732  .00033487  00000-0  22564-2 0  9994","MEAN_MOTION":"15.06399257","EPHEMERIS_TYPE":"0","SEMIMAJOR_AXIS":"6925.351","RCS_SIZE":"LARGE","COUNTRY_CODE":"US","ECCENTRICITY":"0.00015630","EPOCH":"2023-03-24T16:38:05.336448","OBJECT_ID":"2021-038X","OBJECT_TYPE":"PAYLOAD","FILE":"3870109","APOAPSIS":"548.298","RA_OF_ASC_NODE":"164.3888","NORAD_CAT_ID":"48374","REF_FRAME":"TEME","MEAN_MOTION_DDOT":"0.0000000000000","REV_AT_EPOCH":"10423","PERIOD":"95.592","TLE_LINE2":"2 48374  53.0522 164.3888 0001563 122.9896 237.1243 15.06399257104234","MEAN_MOTION_DOT":"0.00033487","PERIAPSIS":"546.133","MEAN_ANOMALY":"237.1243","TIME_SYSTEM":"UTC","GP_ID":"228821244","INCLINATION":"53.0522","OBJECT_NAME":"STARLINK-2604","BSTAR":"0.00225640000000","SITE":"AFETR","LAUNCH_DATE":"2021-05-04","DECAY_DATE":null,"ARG_OF_PERICENTER":"122.9896"},{"TIME_SYSTEM":"UTC","MEAN_ANOMALY":"267.4354","MEAN_MOTION_DOT":"0.00074261","PERIAPSIS":"546.215","TLE_LINE2":"2 48375  53.0536 165.3069 0001631  92.6822 267.4354 15.06357362104207","PERIOD":"95.595","ARG_OF_PERICENTER":"92.6822","DECAY_DATE":null,"LAUNCH_DATE":"2021-05-04","SITE":"AFETR","BSTAR":"0.00495780000000","OBJECT_NAME":"STARLINK-2603","GP_ID":"228788870","INCLINATION":"53.0536","EPHEMERIS_TYPE":"0","MEAN_MOTION":"15.06357362","TLE_LINE1":"1 48375U 21038Y   23083.49133492  .00074261  00000-0  49578-2 0  9997","ELEMENT_SET_NO":"999","MEAN_ELEMENT_THEORY":"SGP4","CENTER_NAME":"EARTH","CLASSIFICATION_TYPE":"U","REV_AT_EPOCH":"10420","MEAN_MOTION_DDOT":"0.0000000000000","REF_FRAME":"TEME","NORAD_CAT_ID":"48375","APOAPSIS":"548.474","RA_OF_ASC_NODE":"165.3069","FILE":"3869846","OBJECT_TYPE":"PAYLOAD","OBJECT_ID":"2021-038Y","EPOCH":"2023-03-24T11:47:31.337088","ECCENTRICITY":"0.00016310","COUNTRY_CODE":"US","RCS_SIZE":"LARGE","SEMIMAJOR_AXIS":"6925.479"},{"CENTER_NAME":"EARTH","CLASSIFICATION_TYPE":"U","EPHEMERIS_TYPE":"0","MEAN_MOTION":"15.06381068","TLE_LINE1":"1 48376U 21038Z   23083.48764859  .00036393  00000-0  24508-2 0  9994","MEAN_ELEMENT_THEORY":"SGP4","ELEMENT_SET_NO":"999","OBJECT_TYPE":"PAYLOAD","OBJECT_ID":"2021-038Z","EPOCH":"2023-03-24T11:42:12.838176","ECCENTRICITY":"0.00013070","COUNTRY_CODE":"US","RCS_SIZE":"LARGE","SEMIMAJOR_AXIS":"6925.407","REV_AT_EPOCH":"10420","MEAN_MOTION_DDOT":"0.0000000000000","REF_FRAME":"TEME","NORAD_CAT_ID":"48376","APOAPSIS":"548.177","RA_OF_ASC_NODE":"165.3170","FILE":"3869846","MEAN_ANOMALY":"278.9367","PERIAPSIS":"546.366","MEAN_MOTION_DOT":"0.00036393","TLE_LINE2":"2 48376  53.0547 165.3170 0001307  81.1770 278.9367 15.06381068104209","PERIOD":"95.593","TIME_SYSTEM":"UTC","LAUNCH_DATE":"2021-05-04","SITE":"AFETR","BSTAR":"0.00245080000000","GP_ID":"228790122","OBJECT_NAME":"STARLINK-2610","INCLINATION":"53.0547","ARG_OF_PERICENTER":"81.1770","DECAY_DATE":null}];
